OBJECT_NAME,OBJECT_ID,EPOCH,MEAN_MOTION,ECCENTRICITY,INCLINATION,RA_OF_ASC_NODE,ARG_OF_PERICENTER,MEAN_ANOMALY,EPHEMERIS_TYPE,CLASSIFICATION_TYPE,NORAD_CAT_ID,ELEMENT_SET_NO,REV_AT_EPOCH,BSTAR,MEAN_MOTION_DOT,MEAN_MOTION_DDOT
STARLINK-6247,2023-088AQ,2026-06-11T01:49:11.476128,15.27577720,.00021919,43.0114,288.6383,272.8917,87.1684,0,U,57086,999,16478,.10903992E-4,.37E-6,0
STARLINK-6251,2023-088AR,2026-06-11T15:28:50.987712,15.27575414,.0001216,43.0028,285.1692,286.5673,73.5045,0,U,57087,999,16487,.99793E-6,-.235E-5,0
STARLINK-6257,2023-088AS,2026-06-10T02:22:23.968128,15.27576640,.00018779,43.0059,294.2047,282.1688,77.8953,0,U,57088,999,16463,.2714447E-4,.485E-5,0
STARLINK-6259,2023-088AT,2026-06-11T01:47:20.802912,15.27578323,.00020159,43.0060,288.6283,289.5900,70.4734,0,U,57089,999,16478,.21020708E-4,.316E-5,0
STARLINK-6254,2023-088AU,2026-06-11T15:34:24.883104,15.27577174,.0001565,43.0035,285.1938,272.9302,87.1371,0,U,57090,999,16487,-.10518E-4,-.552E-5,0
STARLINK-6262,2023-088AV,2026-06-11T01:36:14.749632,15.27574206,.00010365,43.0020,288.5672,277.0184,83.0549,0,U,57091,999,16478,-.3876496E-5,-.369E-5,0
STARLINK-6225,2023-088AW,2026-06-11T15:38:06.391968,15.27573036,.0001055,43.0027,285.2157,275.2026,84.8705,0,U,57092,999,16487,-.84727E-5,-.495E-5,0
STARLINK-6229,2023-088AX,2026-06-11T01:52:52.840704,15.27591347,.00024917,43.0057,288.6476,268.9647,91.0919,0,U,57093,999,16478,-.44365305E-4,-.1484E-4,0
STARLINK-6235,2023-088AY,2026-06-11T14:31:41.838240,15.27576609,.0001901,43.0048,285.7219,278.3974,81.6662,0,U,57094,999,16486,.15577E-4,.166E-5,0
STARLINK-6132,2023-090A,2026-06-11T03:21:28.701792,15.27580940,.0001675,43.0064,113.8653,267.7257,92.3403,0,U,57101,999,16462,.25545694E-4,.441E-5,0
STARLINK-6111,2023-090B,2026-06-11T08:15:06.914592,15.26822318,.0001981,43.0027,112.8161,344.5810,15.4981,0,U,57102,999,16465,.55371E-2,.151738E-2,0
STARLINK-6130,2023-090D,2026-06-11T03:27:02.453760,15.27576950,.00015709,43.0069,113.8945,270.4678,89.5994,0,U,57104,999,16461,.477104E-5,-.131E-5,0
STARLINK-6097,2023-090E,2026-06-11T13:01:15.163968,15.27578539,.0001191,43.0028,111.7229,254.7515,105.3205,0,U,57105,999,16468,.79882E-4,.1937E-4,0
STARLINK-6118,2023-090F,2026-06-11T03:19:38.389728,15.27575395,.00012524,43.0037,113.8531,263.6225,96.4484,0,U,57106,999,16462,.9387528E-5,-.4E-7,0
STARLINK-6131,2023-090G,2026-06-11T13:43:34.715712,15.27573480,.000121,43.0040,111.0835,269.7548,90.3165,0,U,57107,999,16469,.57084E-5,-.105E-5,0
STARLINK-6099,2023-090H,2026-06-11T03:14:05.559648,15.27570039,.00013808,43.0009,113.8195,265.3512,94.7182,0,U,57108,999,16462,-.12842219E-4,-.615E-5,0
STARLINK-6139,2023-090J,2026-06-11T13:27:08.256672,15.27575510,.000068,43.0031,111.8528,250.8836,109.1942,0,U,57109,999,16468,.19612E-4,.278E-5,0
STARLINK-6134,2023-090K,2026-06-11T03:08:43.912320,15.27474910,.00014578,43.0033,113.8012,298.5885,61.4820,0,U,57110,999,16462,.11206155E-2,.30604E-3,0
STARLINK-6140,2023-090L,2026-06-11T14:00:13.225824,15.27576691,.000148,43.0053,111.1742,298.7848,61.2855,0,U,57111,999,16469,.27371E-5,-.187E-5,0
STARLINK-6141,2023-090M,2026-06-11T03:25:11.135136,15.27577780,.00016066,43.0080,113.8815,271.2381,88.8286,0,U,57112,999,16462,.13604674E-4,.112E-5,0
STARLINK-6142,2023-090N,2026-06-11T13:49:07.955328,15.27570692,.0000306,43.0020,111.1128,267.2035,92.8781,0,U,57113,999,16469,-.69337E-4,-.2168E-4,0
STARLINK-6125,2023-090P,2026-06-11T13:54:39.835008,15.27582942,.0001213,43.0032,111.1476,288.5528,71.5192,0,U,57114,999,16469,-.32916E-4,-.1168E-4,0
STARLINK-6085,2023-090Q,2026-06-11T13:18:26.515584,15.17012769,.0018168,42.9966,103.3575,89.0493,271.2436,0,U,57115,999,16478,.16283E-2,.32828E-3,0
STARLINK-6129,2023-090R,2026-06-11T04:13:05.320992,15.27572546,.00003572,42.9942,113.2758,206.7569,153.3264,0,U,57116,999,16463,-.50937526E-4,-.1663E-4,0
STARLINK-6148,2023-090S,2026-06-10T14:07:33.207456,15.27561941,.00007068,43.0023,116.6052,273.3363,86.7408,0,U,57117,999,16453,-.44415095E-4,-.1483E-4,0
STARLINK-6150,2023-090U,2026-06-11T03:38:08.299680,15.27576771,.00011342,43.0059,113.9395,269.2726,90.7995,0,U,57119,999,16462,.28242185E-4,.515E-5,0
STARLINK-6147,2023-090V,2026-06-11T14:03:55.317888,15.27580993,.0001407,43.0047,111.1864,274.7383,85.3308,0,U,57120,999,16469,.30024E-4,.564E-5,0
STARLINK-6152,2023-090W,2026-06-11T04:11:14.436096,15.27573728,.000084,43.0015,113.2645,273.7710,86.3046,0,U,57121,999,16444,.1931078E-5,-.209E-5,0
STARLINK-6149,2023-090X,2026-06-11T13:14:11.050656,15.27586390,.0001016,43.0011,111.7796,247.3764,112.6980,0,U,57122,999,16468,.51188E-5,-.121E-5,0
STARLINK-6154,2023-090Y,2026-06-11T03:15:54.732096,15.27586302,.00015875,43.0046,113.8234,259.6087,100.4586,0,U,57123,999,16443,.50371993E-4,.1124E-4,0
