STARLINK-6247           
1 57086U 23088AQ  26162.07582727  .00000037  00000+0  10904-4 0  9999
2 57086  43.0114 288.6383 0002191 272.8917  87.1684 15.27577720164781
STARLINK-6251           
1 57087U 23088AR  26162.64503458 -.00000235  00000+0  99793-6 0  9993
2 57087  43.0028 285.1692 0001216 286.5673  73.5045 15.27575414164877
STARLINK-6257           
1 57088U 23088AS  26161.09888852  .00000485  00000+0  27144-4 0  9991
2 57088  43.0059 294.2047 0001877 282.1688  77.8953 15.27576640164639
STARLINK-6259           
1 57089U 23088AT  26162.07454633  .00000316  00000+0  21021-4 0  9998
2 57089  43.0060 288.6283 0002015 289.5900  70.4734 15.27578323164786
STARLINK-6254           
1 57090U 23088AU  26162.64889911 -.00000552  00000+0 -10518-4 0  9997
2 57090  43.0035 285.1938 0001565 272.9302  87.1371 15.27577174164875
STARLINK-6262           
1 57091U 23088AV  26162.06683738 -.00000369  00000+0 -38765-5 0  9994
2 57091  43.0020 288.5672 0001036 277.0184  83.0549 15.27574206164784
STARLINK-6225           
1 57092U 23088AW  26162.65146287 -.00000495  00000+0 -84727-5 0  9992
2 57092  43.0027 285.2157 0001055 275.2026  84.8705 15.27573036164873
STARLINK-6229           
1 57093U 23088AX  26162.07838936 -.00001484  00000+0 -44365-4 0  9990
2 57093  43.0057 288.6476 0002491 268.9647  91.0919 15.27591347164783
STARLINK-6235           
1 57094U 23088AY  26162.60534535  .00000166  00000+0  15577-4 0  9995
2 57094  43.0048 285.7219 0001901 278.3974  81.6662 15.27576609164863
STARLINK-6132           
1 57101U 23090A   26162.13991553  .00000441  00000+0  25546-4 0  9995
2 57101  43.0064 113.8653 0001675 267.7257  92.3403 15.27580940164626
STARLINK-6111           
1 57102U 23090B   26162.34383003  .00151738  00000+0  55371-2 0  9997
2 57102  43.0027 112.8161 0001981 344.5810  15.4981 15.26822318164655
STARLINK-6130           
1 57104U 23090D   26162.14377840 -.00000131  00000+0  47710-5 0  9991
2 57104  43.0069 113.8945 0001570 270.4678  89.5994 15.27576950164618
STARLINK-6097           
1 57105U 23090E   26162.54253662  .00001937  00000+0  79882-4 0  9999
2 57105  43.0028 111.7229 0001191 254.7515 105.3205 15.27578539164684
STARLINK-6118           
1 57106U 23090F   26162.13863877 -.00000004  00000+0  93875-5 0  9994
2 57106  43.0037 113.8531 0001252 263.6225  96.4484 15.27575395164629
STARLINK-6131           
1 57107U 23090G   26162.57192958 -.00000105  00000+0  57084-5 0  9992
2 57107  43.0040 111.0835 0001210 269.7548  90.3165 15.27573480164699
STARLINK-6099           
1 57108U 23090H   26162.13478657 -.00000615  00000+0 -12842-4 0  9997
2 57108  43.0009 113.8195 0001380 265.3512  94.7182 15.27570039164622
STARLINK-6139           
1 57109U 23090J   26162.56051223  .00000278  00000+0  19612-4 0  9996
2 57109  43.0031 111.8528 0000680 250.8836 109.1942 15.27575510164686
STARLINK-6134           
1 57110U 23090K   26162.13106380  .00030604  00000+0  11206-2 0  9991
2 57110  43.0033 113.8012 0001457 298.5885  61.4820 15.27474910164627
STARLINK-6140           
1 57111U 23090L   26162.58348641 -.00000187  00000+0  27371-5 0  9996
2 57111  43.0053 111.1742 0001480 298.7848  61.2855 15.27576691164690
STARLINK-6141           
1 57112U 23090M   26162.14248999  .00000112  00000+0  13605-4 0  9995
2 57112  43.0080 113.8815 0001606 271.2381  88.8286 15.27577780164625
STARLINK-6142           
1 57113U 23090N   26162.57578652 -.00002168  00000+0 -69337-4 0  9993
2 57113  43.0020 111.1128 0000306 267.2035  92.8781 15.27570692164692
STARLINK-6125           
1 57114U 23090P   26162.57962772 -.00001168  00000+0 -32916-4 0  9996
2 57114  43.0032 111.1476 0001213 288.5528  71.5192 15.27582942164694
STARLINK-6085           
1 57115U 23090Q   26162.55447356  .00032828  00000+0  16283-2 0  9993
2 57115  42.9966 103.3575 0018168  89.0493 271.2436 15.17012769164788
STARLINK-6129           
1 57116U 23090R   26162.17575603 -.00001663  00000+0 -50938-4 0  9991
2 57116  42.9942 113.2758 0000357 206.7569 153.3264 15.27572546164637
STARLINK-6148           
1 57117U 23090S   26161.58857879 -.00001483  00000+0 -44415-4 0  9997
2 57117  43.0023 116.6052 0000706 273.3363  86.7408 15.27561941164539
STARLINK-6150           
1 57119U 23090U   26162.15148495  .00000515  00000+0  28242-4 0  9993
2 57119  43.0059 113.9395 0001134 269.2726  90.7995 15.27576771164626
STARLINK-6147           
1 57120U 23090V   26162.58605692  .00000564  00000+0  30024-4 0  9994
2 57120  43.0047 111.1864 0001407 274.7383  85.3308 15.27580993164695
STARLINK-6152           
1 57121U 23090W   26162.17447264 -.00000209  00000+0  19311-5 0  9993
2 57121  43.0015 113.2645 0000840 273.7710  86.3046 15.27573728164445
STARLINK-6149           
1 57122U 23090X   26162.55151679 -.00000121  00000+0  51188-5 0  9999
2 57122  43.0011 111.7796 0001016 247.3764 112.6980 15.27586390164689
STARLINK-6154           
1 57123U 23090Y   26162.13605014  .00001124  00000+0  50372-4 0  9997
2 57123  43.0046 113.8234 0001587 259.6087 100.4586 15.27586302164438
